CCSDS_OMM_VERS = 2.0
CREATION_DATE  = 
ORIGINATOR     = 

OBJECT_NAME    = STARLINK-35764
OBJECT_ID      = 2025-299H
CENTER_NAME    = EARTH
REF_FRAME      = TEME
TIME_SYSTEM    = UTC
MEAN_ELEMENT_THEORY = SGP/SGP4

EPOCH          = 2025-12-23T06:00:00.999648
MEAN_MOTION    = 15.91647836
ECCENTRICITY   = .00018528
INCLINATION    = 42.9981
RA_OF_ASC_NODE = 252.3365
ARG_OF_PERICENTER = 275.3309
MEAN_ANOMALY   = 22.9455

EPHEMERIS_TYPE = 0
CLASSIFICATION_TYPE = U
NORAD_CAT_ID   = 67109
ELEMENT_SET_NO = 999
REV_AT_EPOCH   = 239
BSTAR          = -.59119801E-2
MEAN_MOTION_DOT = -.1983394E-1
MEAN_MOTION_DDOT = .10597986E-2

CCSDS_OMM_VERS = 2.0
CREATION_DATE  = 
ORIGINATOR     = 

OBJECT_NAME    = STARLINK-35781
OBJECT_ID      = 2025-299J
CENTER_NAME    = EARTH
REF_FRAME      = TEME
TIME_SYSTEM    = UTC
MEAN_ELEMENT_THEORY = SGP/SGP4

EPOCH          = 2025-12-23T06:00:00.999648
MEAN_MOTION    = 15.91662318
ECCENTRICITY   = .00020517
INCLINATION    = 42.9981
RA_OF_ASC_NODE = 252.3277
ARG_OF_PERICENTER = 268.2710
MEAN_ANOMALY   = 33.5119

EPHEMERIS_TYPE = 0
CLASSIFICATION_TYPE = U
NORAD_CAT_ID   = 67110
ELEMENT_SET_NO = 999
REV_AT_EPOCH   = 245
BSTAR          = -.59426018E-2
MEAN_MOTION_DOT = -.1995087E-1
MEAN_MOTION_DDOT = .1071655E-2

CCSDS_OMM_VERS = 2.0
CREATION_DATE  = 
ORIGINATOR     = 

OBJECT_NAME    = STARLINK-35875
OBJECT_ID      = 2025-299K
CENTER_NAME    = EARTH
REF_FRAME      = TEME
TIME_SYSTEM    = UTC
MEAN_ELEMENT_THEORY = SGP/SGP4

EPOCH          = 2025-12-23T06:00:00.999648
MEAN_MOTION    = 15.91653670
ECCENTRICITY   = .00018753
INCLINATION    = 42.9982
RA_OF_ASC_NODE = 252.3322
ARG_OF_PERICENTER = 273.6933
MEAN_ANOMALY   = 26.4010

EPHEMERIS_TYPE = 0
CLASSIFICATION_TYPE = U
NORAD_CAT_ID   = 67111
ELEMENT_SET_NO = 999
REV_AT_EPOCH   = 239
BSTAR          = -.59278727E-2
MEAN_MOTION_DOT = -.1989259E-1
MEAN_MOTION_DDOT = .10657213E-2

CCSDS_OMM_VERS = 2.0
CREATION_DATE  = 
ORIGINATOR     = 

OBJECT_NAME    = STARLINK-35906
OBJECT_ID      = 2025-299L
CENTER_NAME    = EARTH
REF_FRAME      = TEME
TIME_SYSTEM    = UTC
MEAN_ELEMENT_THEORY = SGP/SGP4

EPOCH          = 2025-12-23T06:00:00.999648
MEAN_MOTION    = 15.91677521
ECCENTRICITY   = .00020106
INCLINATION    = 42.9982
RA_OF_ASC_NODE = 252.3243
ARG_OF_PERICENTER = 268.2889
MEAN_ANOMALY   = 34.8713

EPHEMERIS_TYPE = 0
CLASSIFICATION_TYPE = U
NORAD_CAT_ID   = 67112
ELEMENT_SET_NO = 999
REV_AT_EPOCH   = 239
BSTAR          = -.59375764E-2
MEAN_MOTION_DOT = -.1994957E-1
MEAN_MOTION_DDOT = .10716864E-2

CCSDS_OMM_VERS = 2.0
CREATION_DATE  = 
ORIGINATOR     = 

OBJECT_NAME    = STARLINK-35789
OBJECT_ID      = 2025-299M
CENTER_NAME    = EARTH
REF_FRAME      = TEME
TIME_SYSTEM    = UTC
MEAN_ELEMENT_THEORY = SGP/SGP4

EPOCH          = 2025-12-23T06:00:00.999648
MEAN_MOTION    = 15.91693017
ECCENTRICITY   = .00016098
INCLINATION    = 42.9980
RA_OF_ASC_NODE = 252.3204
ARG_OF_PERICENTER = 266.8703
MEAN_ANOMALY   = 37.7860

EPHEMERIS_TYPE = 0
CLASSIFICATION_TYPE = U
NORAD_CAT_ID   = 67113
ELEMENT_SET_NO = 999
REV_AT_EPOCH   = 239
BSTAR          = -.59582445E-2
MEAN_MOTION_DOT = -.2003265E-1
MEAN_MOTION_DDOT = .10802097E-2

CCSDS_OMM_VERS = 2.0
CREATION_DATE  = 
ORIGINATOR     = 

OBJECT_NAME    = STARLINK-36180
OBJECT_ID      = 2025-299N
CENTER_NAME    = EARTH
REF_FRAME      = TEME
TIME_SYSTEM    = UTC
MEAN_ELEMENT_THEORY = SGP/SGP4

EPOCH          = 2025-12-23T06:00:00.999648
MEAN_MOTION    = 15.91697809
ECCENTRICITY   = .00017824
INCLINATION    = 42.9982
RA_OF_ASC_NODE = 252.3161
ARG_OF_PERICENTER = 262.5998
MEAN_ANOMALY   = 43.8556

EPHEMERIS_TYPE = 0
CLASSIFICATION_TYPE = U
NORAD_CAT_ID   = 67114
ELEMENT_SET_NO = 999
REV_AT_EPOCH   = 250
BSTAR          = -.59631279E-2
MEAN_MOTION_DOT = -.2005433E-1
MEAN_MOTION_DDOT = .10824492E-2

CCSDS_OMM_VERS = 2.0
CREATION_DATE  = 
ORIGINATOR     = 

OBJECT_NAME    = STARLINK-35892
OBJECT_ID      = 2025-299P
CENTER_NAME    = EARTH
REF_FRAME      = TEME
TIME_SYSTEM    = UTC
MEAN_ELEMENT_THEORY = SGP/SGP4

EPOCH          = 2025-12-23T06:00:00.999648
MEAN_MOTION    = 15.91701827
ECCENTRICITY   = .00018917
INCLINATION    = 42.9982
RA_OF_ASC_NODE = 252.3121
ARG_OF_PERICENTER = 273.4071
MEAN_ANOMALY   = 34.5710

EPHEMERIS_TYPE = 0
CLASSIFICATION_TYPE = U
NORAD_CAT_ID   = 67115
ELEMENT_SET_NO = 999
REV_AT_EPOCH   = 239
BSTAR          = -.59187563E-2
MEAN_MOTION_DOT = -.1991146E-1
MEAN_MOTION_DDOT = .10681212E-2

CCSDS_OMM_VERS = 2.0
CREATION_DATE  = 
ORIGINATOR     = 

OBJECT_NAME    = STARLINK-35738
OBJECT_ID      = 2025-299Q
CENTER_NAME    = EARTH
REF_FRAME      = TEME
TIME_SYSTEM    = UTC
MEAN_ELEMENT_THEORY = SGP/SGP4

EPOCH          = 2025-12-23T06:00:00.999648
MEAN_MOTION    = 15.91710424
ECCENTRICITY   = .00018754
INCLINATION    = 42.9982
RA_OF_ASC_NODE = 252.3075
ARG_OF_PERICENTER = 269.2641
MEAN_ANOMALY   = 40.5767

EPHEMERIS_TYPE = 0
CLASSIFICATION_TYPE = U
NORAD_CAT_ID   = 67116
ELEMENT_SET_NO = 999
REV_AT_EPOCH   = 239
BSTAR          = -.59503692E-2
MEAN_MOTION_DOT = -.2002521E-1
MEAN_MOTION_DDOT = .10796465E-2

CCSDS_OMM_VERS = 2.0
CREATION_DATE  = 
ORIGINATOR     = 

OBJECT_NAME    = STARLINK-35674
OBJECT_ID      = 2025-299R
CENTER_NAME    = EARTH
REF_FRAME      = TEME
TIME_SYSTEM    = UTC
MEAN_ELEMENT_THEORY = SGP/SGP4

EPOCH          = 2025-12-23T06:00:00.999648
MEAN_MOTION    = 15.91714340
ECCENTRICITY   = .00018421
INCLINATION    = 42.9984
RA_OF_ASC_NODE = 252.3033
ARG_OF_PERICENTER = 265.9632
MEAN_ANOMALY   = 45.5354

EPHEMERIS_TYPE = 0
CLASSIFICATION_TYPE = U
NORAD_CAT_ID   = 67117
ELEMENT_SET_NO = 999
REV_AT_EPOCH   = 229
BSTAR          = -.59463913E-2
MEAN_MOTION_DOT = -.2001589E-1
MEAN_MOTION_DDOT = .107875E-2

CCSDS_OMM_VERS = 2.0
CREATION_DATE  = 
ORIGINATOR     = 

OBJECT_NAME    = STARLINK-35701
OBJECT_ID      = 2025-299S
CENTER_NAME    = EARTH
REF_FRAME      = TEME
TIME_SYSTEM    = UTC
MEAN_ELEMENT_THEORY = SGP/SGP4

EPOCH          = 2025-12-23T06:00:00.999648
MEAN_MOTION    = 15.91714756
ECCENTRICITY   = .00020471
INCLINATION    = 42.9983
RA_OF_ASC_NODE = 252.2991
ARG_OF_PERICENTER = 271.8705
MEAN_ANOMALY   = 41.3330

EPHEMERIS_TYPE = 0
CLASSIFICATION_TYPE = U
NORAD_CAT_ID   = 67118
ELEMENT_SET_NO = 999
REV_AT_EPOCH   = 245
BSTAR          = -.59056479E-2
MEAN_MOTION_DOT = -.1988165E-1
MEAN_MOTION_DDOT = .10652731E-2

CCSDS_OMM_VERS = 2.0
CREATION_DATE  = 
ORIGINATOR     = 

OBJECT_NAME    = STARLINK-36179
OBJECT_ID      = 2025-299T
CENTER_NAME    = EARTH
REF_FRAME      = TEME
TIME_SYSTEM    = UTC
MEAN_ELEMENT_THEORY = SGP/SGP4

EPOCH          = 2025-12-23T06:00:00.999648
MEAN_MOTION    = 15.91747340
ECCENTRICITY   = .00020419
INCLINATION    = 42.9981
RA_OF_ASC_NODE = 252.2923
ARG_OF_PERICENTER = 273.0932
MEAN_ANOMALY   = 42.6788

EPHEMERIS_TYPE = 0
CLASSIFICATION_TYPE = U
NORAD_CAT_ID   = 67119
ELEMENT_SET_NO = 999
REV_AT_EPOCH   = 250
BSTAR          = -.58900068E-2
MEAN_MOTION_DOT = -.1986276E-1
MEAN_MOTION_DDOT = .10637273E-2

CCSDS_OMM_VERS = 2.0
CREATION_DATE  = 
ORIGINATOR     = 

OBJECT_NAME    = STARLINK-36217
OBJECT_ID      = 2025-299U
CENTER_NAME    = EARTH
REF_FRAME      = TEME
TIME_SYSTEM    = UTC
MEAN_ELEMENT_THEORY = SGP/SGP4

EPOCH          = 2025-12-23T06:00:00.999648
MEAN_MOTION    = 15.91729011
ECCENTRICITY   = .00017204
INCLINATION    = 42.9983
RA_OF_ASC_NODE = 252.2955
ARG_OF_PERICENTER = 266.8110
MEAN_ANOMALY   = 47.7983

EPHEMERIS_TYPE = 0
CLASSIFICATION_TYPE = U
NORAD_CAT_ID   = 67120
ELEMENT_SET_NO = 999
REV_AT_EPOCH   = 250
BSTAR          = -.59261589E-2
MEAN_MOTION_DOT = -.1996324E-1
MEAN_MOTION_DDOT = .10736086E-2

