STARLINK-35764          
1 67109U 25299H   25357.25001157 -.01983394  10598-2 -59120-2 0  9996
2 67109  42.9981 252.3365 0001852 275.3309  22.9455 15.91647836  2390
STARLINK-35781          
1 67110U 25299J   25357.25001157 -.01995087  10717-2 -59426-2 0  9992
2 67110  42.9981 252.3277 0002051 268.2710  33.5119 15.91662318  2457
STARLINK-35875          
1 67111U 25299K   25357.25001157 -.01989259  10657-2 -59279-2 0  9996
2 67111  42.9982 252.3322 0001875 273.6933  26.4010 15.91653670  2395
STARLINK-35906          
1 67112U 25299L   25357.25001157 -.01994957  10717-2 -59376-2 0  9993
2 67112  42.9982 252.3243 0002010 268.2889  34.8713 15.91677521  2394
STARLINK-35789          
1 67113U 25299M   25357.25001157 -.02003265  10802-2 -59582-2 0  9992
2 67113  42.9980 252.3204 0001609 266.8703  37.7860 15.91693017  2395
STARLINK-36180          
1 67114U 25299N   25357.25001157 -.02005433  10824-2 -59631-2 0  9991
2 67114  42.9982 252.3161 0001782 262.5998  43.8556 15.91697809  2507
STARLINK-35892          
1 67115U 25299P   25357.25001157 -.01991146  10681-2 -59188-2 0  9994
2 67115  42.9982 252.3121 0001891 273.4071  34.5710 15.91701827  2390
STARLINK-35738          
1 67116U 25299Q   25357.25001157 -.02002521  10796-2 -59504-2 0  9995
2 67116  42.9982 252.3075 0001875 269.2641  40.5767 15.91710424  2399
STARLINK-35674          
1 67117U 25299R   25357.25001157 -.02001589  10788-2 -59464-2 0  9995
2 67117  42.9984 252.3033 0001842 265.9632  45.5354 15.91714340  2290
STARLINK-35701          
1 67118U 25299S   25357.25001157 -.01988165  10653-2 -59056-2 0  9997
2 67118  42.9983 252.2991 0002047 271.8705  41.3330 15.91714756  2454
STARLINK-36179          
1 67119U 25299T   25357.25001157 -.01986276  10637-2 -58900-2 0  9998
2 67119  42.9981 252.2923 0002041 273.0932  42.6788 15.91747340  2500
STARLINK-36217          
1 67120U 25299U   25357.25001157 -.01996324  10736-2 -59262-2 0  9997
2 67120  42.9983 252.2955 0001720 266.8110  47.7983 15.91729011  2508
